{
  "countries": [ "FR" ],
  "sql_columns": [
    "aeroway", "amenity", "craft", "emergency", "healthcare", "highway", "historic",
    "leisure", "office", "public_transport", "railway", "shop", "tourism",
    "opening_hours", "operator", "natural", "school:FR", "name", "wheelchair"
  ],
  "categories": {
    "administration": {
      "name": "Administration",
      "subcategories": {
        "townhall": {
          "name": "Townhall",
          "osm_tags": [ { "amenity": "townhall" } ],
          "areas": "all"
        },
        "government": {
          "name": "Administration",
          "osm_tags": [
            { "office": "government|diplomatic" }
          ],
          "areas": "all"
        },
        "police": {
          "name": "Police",
          "osm_tags": [
            { "amenity": "police" }
          ],
          "areas": "all",
          "form_details": [ "access" ]
        }
      }
    },
    "financial": {
      "name": "Bank / insurance",
      "subcategories": {
        "bank": {
          "name": "Bank",
          "osm_tags": [
            { "amenity": "bank" }
          ],
          "areas": "all"
        },
        "atm": {
          "name": "ATM",
          "osm_tags": [
            { "amenity": "atm" }
          ],
          "areas": "all"
        },
        "money_transfer": {
          "name": "Money transfer",
          "osm_tags": [
            { "amenity": "money_transfer" }
          ],
          "areas": "all"
        },
        "insurance": {
          "name": "Insurance",
          "osm_tags": [
            { "office": "insurance" },
            { "shop": "insurance" }
          ],
          "areas": "all"
        }
      }
    },
    "post_service": {
      "name": "Post services",
      "subcategories": {
        "post_office": {
          "name": "Post office",
          "osm_tags": [
            { "amenity": "post_office" }
          ],
          "areas": "all"
        },
        "post_box": {
          "name": "Post box",
          "osm_tags": [
            { "amenity": "post_box" }
          ],
          "areas": "all"
        },
        "parcel": {
          "name": "Parcel drop/pickup",
          "osm_tags": [
            { "amenity": "vending_machine", "vending": "parcel_mail_in|parcel_pickup|parcel_pickup;parcel_mail_in" }
          ],
          "areas": "all"
        },
        "copyshop": {
          "name": "Copy shop",
          "osm_tags": [
            { "shop": "copyshop" }
          ],
          "areas": "all",
          "form_details": [ "delivery", "drive", "access" ]
        }
      }
    },
    "leisure": {
      "name": "Leisure",
      "subcategories": {
        "cinema": {
          "name": "Cinema",
          "osm_tags": [
            { "amenity": "cinema" }
          ],
          "areas": "all"
        },
        "theatre": {
          "name": "Theatre",
          "osm_tags": [
            { "amenity": "theatre" }
          ],
          "areas": "all"
        },
        "restaurant": {
          "name": "Restaurant",
          "osm_tags": [
            { "amenity": "restaurant|fast_food" }
          ],
          "areas": "all",
          "form_details": [ "delivery", "takeaway", "drive_through", "access" ]
        },
        "cafe": {
          "name": "Coffee shop",
          "osm_tags": [
            { "amenity": "cafe|ice_cream" }
          ],
          "areas": "all",
          "form_details": [ "delivery", "takeaway", "access" ]
        },
        "bar": {
          "name": "Bar",
          "osm_tags": [ { "amenity": "bar|pub" } ],
          "areas": "all",
          "form_details": [ "delivery", "takeaway", "access" ]
        },
        "nightclub": {
          "name": "Nightclub",
          "osm_tags": [ { "amenity": "nightclub" } ],
          "areas": "all"
        },
        "swimming_pool": {
          "name": "Swimming pool",
          "osm_tags": [
            { "leisure": "sports_centre", "sport": "swimming" },
            { "leisure": "swimming_pool", "access": "yes|public" },
            { "amenity": "swimming_pool" }
          ],
          "areas": "all"
        },
        "museum": {
          "name": "Museum",
          "osm_tags": [
            { "tourism": "museum" }
          ],
          "areas": "all"
        },
        "association": {
          "name": "Association",
          "osm_tags": [
            { "office": "association", "association:for": "disabled" }
          ],
          "areas": "all"
        },
        "library": {
          "name": "Library",
          "osm_tags": [ { "amenity": "library" } ],
          "areas": "all"
        }
      }
    },
    "shop": {
      "name": "Shops",
      "subcategories": {
        "supermarket": {
          "name": "Supermarket",
          "osm_tags": [
            { "shop": "frozen_food|supermarket" }
          ],
          "areas": "all",
          "form_details": [ "delivery", "access", "drive_through" ]
        },
        "butcher": {
          "name": "Butcher",
          "osm_tags": [
            { "shop": "butcher" }
          ],
          "areas": "all",
          "form_details": [ "delivery", "access" ]
        },
        "cheese": {
          "name": "Cheese",
          "osm_tags": [
            { "shop": "cheese" }
          ],
          "areas": "all",
          "form_details": [ "delivery", "access" ]
        },
        "convenience": {
          "name": "Convenience",
          "osm_tags": [
            { "shop": "convenience|general" }
          ],
          "areas": "all",
          "form_details": [ "delivery", "access" ]
        },
        "seafood": {
          "name": "Seafood",
          "osm_tags": [
            { "shop": "seafood" }
          ],
          "areas": "all",
          "form_details": [ "delivery", "access" ]
        },
        "greengrocer": {
          "name": "Greengrocer",
          "osm_tags": [
            { "shop": "greengrocer" }
          ],
          "areas": "all",
          "form_details": [ "delivery", "access" ]
        },
        "grocery": {
          "name": "Grocery",
          "osm_tags": [
            { "shop": "deli|spices|honey|pasta|cannery|tea|coffee" }
          ],
          "areas": "all",
          "form_details": [ "delivery", "access" ]
        },
        "health_food": {
          "name": "Health food",
          "osm_tags": [
            { "shop": "health_food" }
          ],
          "areas": "all",
          "form_details": [ "delivery", "access" ]
        },
        "dairy": {
          "name": "Dairy",
          "osm_tags": [
            { "shop": "dairy" },
            { "amenity": "vending_machine", "vending": "milk" }
          ],
          "areas": "all",
          "form_details": [ "delivery", "access" ]
        },
        "confectionery": {
          "name": "Confectionery",
          "osm_tags": [ { "shop": "confectionery|chocolate" } ],
          "areas": "all",
          "form_details": [ "delivery", "access" ]
        },
        "farm": {
          "name": "Farm shop",
          "osm_tags": [ { "shop": "farm" } ],
          "areas": "all",
          "form_details": [ "delivery", "access" ]
        },
        "marketplace": {
          "name": "Marketplace",
          "osm_tags": [
            { "amenity": "marketplace" }
          ],
          "areas": "all"
        },
        "bakery": {
          "name": "Bakery",
          "osm_tags": [
            { "shop": "bakery|pastry" },
            { "amenity": "vending_machine", "vending": "bread" }
          ],
          "areas": "all",
          "form_details": [ "delivery", "access" ]
        },
        "alcohol": {
          "name": "Alcohol store",
          "osm_tags": [
            { "shop": "alcohol|beverages|wine|winery" }
          ],
          "areas": "all",
          "form_details": [ "delivery", "access" ]
        },
        "tobacco": {
          "name": "Tobacco / e-cigarettes",
          "osm_tags": [
            { "shop": "tobacco|newsagent;tobacco|tobacco;newsagent|e-cigarette" },
            { "tobacco": "yes|only" },
            { "amenity": "vending_machine", "vending": "cigarettes|e-cigarettes" }
          ],
          "areas": "all",
          "form_details": [ "delivery", "access", "mask" ]
        },
        "mobile_phone": {
          "name": "Mobile phone",
          "osm_tags": [
            { "shop": "mobile_phone" }
          ],
          "areas": "all",
          "form_details": [ "delivery", "drive", "access" ]
        },
        "computer": {
          "name": "Computer",
          "osm_tags": [ { "shop": "computer" } ],
          "areas": "all",
          "form_details": [ "delivery", "drive", "access" ]
        },
        "laundry": {
          "name": "Laundry",
          "osm_tags": [
            { "shop": "dry_cleaning|laundry" }
          ],
          "areas": "all"
        },
        "stationery": {
          "name": "Stationery",
          "osm_tags": [
            { "shop": "stationery|printer_ink" }
          ],
          "areas": "all",
          "form_details": [ "delivery", "drive", "access" ]
        },
        "newsagent": {
          "name": "Newsagent",
          "osm_tags": [
            { "shop": "kiosk|newsagent" },
            { "newsagent": "yes" }
          ],
          "areas": "all"
        },
        "pet": {
          "name": "Pet store",
          "osm_tags": [
            { "shop": "pet" }
          ],
          "areas": "all",
          "form_details": [ "delivery", "drive", "access" ]
        },
        "flower": {
          "name": "Garden / flower",
          "osm_tags": [
            { "shop": "garden_centre|florist" }
          ],
          "areas": "all",
          "form_details": [ "delivery", "drive", "access" ]
        },
        "sewing": {
          "name": "Sewing",
          "osm_tags": [ { "shop": "fabric|sewing|haberdashery|wool" }, { "craft": "sewing" } ],
          "areas": "all",
          "form_details": [ "delivery", "drive", "access" ]
        },
        "books": {
          "name": "Book store",
          "osm_tags": [
            { "shop": "books" },
            { "amenity": "vending_machine", "vending": "books" },
            { "amenity": "public_bookcase" }
          ],
          "areas": "all",
          "form_details": [ "delivery", "access" ]
        },
        "art": {
          "name": "Art",
          "osm_tags": [
            { "shop": "art" }
          ],
          "areas": "all"
        },
        "charity": {
          "name": "Charity shop",
          "osm_tags": [
            { "shop": "charity" }
          ],
          "areas": "all",
          "form_details": [ "delivery", "access" ]
        },
        "department_store": {
          "name": "Department store",
          "osm_tags": [
            { "shop": "department_store" }
          ],
          "areas": "all"
        },
        "music": {
          "name": "Music",
          "osm_tags": [
            { "shop": "music|musical_instrument" }
          ],
          "areas": "all"
        },
        "photo": {
          "name": "Photo",
          "osm_tags": [
            { "shop": "photo" }
          ],
          "areas": "all"
        },
        "second_hand": {
          "name": "Second hand",
          "osm_tags": [
            { "shop": "second_hand" }
          ],
          "areas": "all"
        },
        "ticket": {
          "name": "Tickets",
          "osm_tags": [
            { "shop": "ticket" }
          ],
          "areas": "all"
        },
        "toys": {
          "name": "Toy store",
          "osm_tags": [
            { "shop": "toys" }
          ],
          "areas": "all"
        },
        "variety_store": {
          "name": "Variety store",
          "osm_tags": [
            { "shop": "variety_store" }
          ],
          "areas": "all"
        },
        "video": {
          "name": "Videos",
          "osm_tags": [
            { "shop": "video" }
          ],
          "areas": "all"
        },
        "video_games": {
          "name": "Video games",
          "osm_tags": [
            { "shop": "video_games" }
          ],
          "areas": "all"
        },
        "wholesale": {
          "name": "Wholesale",
          "osm_tags": [
            { "shop": "wholesale" }
          ],
          "areas": "all"
        },
        "sports": {
          "name": "Sports",
          "osm_tags": [
            { "shop": "fishing|hunting|sports|outdoor" }
          ],
          "areas": "all"
        },
        "hardware": {
          "name": "Hardware",
          "osm_tags": [
            { "shop": "doityourself|electrical|fireplace|glaziery|hardware|paint|tiles" }
          ],
          "areas": "all",
          "form_details": [ "delivery", "drive", "access" ]
        },
        "furniture": {
          "name": "Furniture",
          "osm_tags": [
            { "shop": "bathroom_furnishing|carpet|curtain|furniture|kitchen|houseware|interior_decoration|pottery|lighting|bed" }
          ],
          "areas": "all"
        },
        "hifi": {
          "name": "Hifi",
          "osm_tags": [
            { "shop": "hifi" }
          ],
          "areas": "all"
        },
        "electronics": {
          "name": "Electronics",
          "osm_tags": [
            { "shop": "electronics" },
            { "craft": "electronics_repair" },
            { "shop": "appliance"}
          ],
          "areas": "all",
          "form_details": [ "delivery", "drive", "access" ]
        },
        "beauty": {
          "name": "Beauty",
          "osm_tags": [
            { "shop": "beauty|cosmetics|hairdresser|massage|perfumery" }
          ],
          "areas": "all",
          "form_details": [ "delivery", "access" ]
        },
        "clothes": {
          "name": "Clothes",
          "osm_tags": [
            { "shop": "boutique|clothes|fashion|shoes|bag|jewelry|tailor|watches" }
          ],
          "areas": "all",
          "form_details": [ "delivery", "access" ]
        },
        "chemist": {
          "name": "Chemist",
          "osm_tags": [
            { "shop": "chemist" }
          ],
          "areas": "all",
          "form_details": [ "delivery", "drive", "access" ]
        },
        "edt": {
          "name": "Tahiti Electricity",
          "osm_tags": [
            { "office": "company", "name": "Electricité de Tahiti|EDT|Électricité de Tahiti" },
            { "office": "company", "short_name": "EDT" }
          ],
          "areas": "all"
        }
      }
    },
    "education": {
      "name": "Education",
      "subcategories": {
        "elementary": {
          "name": "Elementary school",
          "osm_tags": [
            { "amenity": "school", "school:FR": "élémentaire" }
          ],
          "areas": "all"
        },
        "college": {
          "name": "College",
          "osm_tags": [
            { "amenity": "school", "school:FR": "collège" }
          ],
          "areas": "all"
        },
        "lycee": {
          "name": "Lycee",
          "osm_tags": [
            { "amenity": "school", "school:FR": "lycée" }
          ],
          "areas": "all"
        },
        "childcare": {
          "name": "Childcare",
          "osm_tags": [ { "amenity": "childcare" }, { "amenity": "kindergarten", "kindergarten:FR": "*" } ],
          "areas": "all"
        }
      }
    },
    "health": {
      "name": "Health",
      "subcategories": {
        "pharmacy": {
          "name": "Pharmacy",
          "osm_tags": [
            { "amenity": "pharmacy" }
          ],
          "areas": "all",
          "form_details": [ "delivery", "access", "hydroalcoholic_gel", "mask" ]
        },
        "hospital": {
          "name": "Hospital",
          "osm_tags": [
            { "healthcare": "hospital" },
            { "amenity": "hospital" }
          ],
          "areas": "all"
        },
        "clinic": {
          "name": "Clinic",
          "osm_tags": [
            { "healthcare": "clinic" },
            { "amenity": "clinic" }
          ],
          "areas": "all"
        },
        "centre": {
          "name": "Centre",
          "osm_tags": [
            { "healthcare": "centre|doctor|rehabilitation|audiologist|dentist|midwife|nurse|podiatrist|psychotherapist|speech_therapist" },
            { "amenity": "doctors" }
          ],
          "areas": "all"
        },
        "occupational_therapist": {
          "name": "Occupational therapist",
          "osm_tags": [ { "healthcare": "occupational_therapist" } ],
          "areas": "all"
        },
        "physiotherapist": {
          "name": "Physiotherapist",
          "osm_tags": [ { "healthcare": "physiotherapist" } ],
          "areas": "all"
        },
        "optician": {
          "name": "Optician",
          "osm_tags": [
            { "shop": "optician" },
            { "craft": "optician" }
          ],
          "areas": "all",
          "form_details": [ "delivery", "access" ]
        },
        "hearing_aids": {
          "name": "Hearing aids",
          "osm_tags": [
            { "shop": "hearing_aids" }
          ],
          "areas": "all",
          "form_details": [ "delivery", "access" ]
        },
        "condoms": {
          "name": "Condoms vending machine",
          "osm_tags": [
            { "amenity": "vending_machine", "vending": "condoms" }
          ],
          "areas": "all"
        },
        "medical_supply": {
          "name": "Medical supplies",
          "osm_tags": [
            { "shop": "medical_supply" }
          ],
          "areas": "all",
          "form_details": [ "delivery", "access" ]
        }
      }
    },
    "mobility": {
      "name": "Mobility",
      "subcategories": {
        "bus_stop": {
          "name": "Bus stop",
          "osm_tags": [
            { "highway": "bus_stop" },
            { "amenity": "bus_station" },
            { "public_transport": "stop_position|platform", "bus": "yes" }
          ],
          "areas": "all"
        },
        "ferry": {
          "name": "Ferry",
          "osm_tags": [
            { "amenity": "ferry_terminal" }
          ],
          "areas": "all"
        },
        "taxi": {
          "name": "Taxi",
          "osm_tags": [
            { "amenity": "taxi" }
          ],
          "areas": "all"
        },
        "airport": {
          "name": "Airport",
          "osm_tags": [
            { "aeroway": "aerodrome" }
          ],
          "areas": "all"
        },
        "parking_pmr": {
          "name": "Adapted parking space",
          "osm_tags": [
            { "amenity": "parking_space", "parking_space": "disabled" },
            { "amenity": "parking_space", "wheelchair": "yes|designated" },
            { "amenity": "parking|parking_space", "capacity:disabled": "*" }
          ],
          "areas": "all"
        },
        "car_rental": {
          "name": "Car rental",
          "osm_tags": [
            { "amenity": "car_rental" }
          ],
          "areas": "all"
        }
      }
    },
    "tourism": {
      "name": "Tourism",
      "subcategories": {
        "beach_resort": {
          "name": "Beach resort",
          "osm_tags": [
            { "leisure": "beach_resort" }, { "natural": "beach" }
          ],
          "areas": "all"
        },
        "park": {
          "name": "Park",
          "osm_tags": [
            { "leisure": "park" }
          ],
          "areas": "all"
        },
        "drinking_water": {
          "name": "Drinking water",
          "osm_tags": [
            { "amenity": "drinking_water" }
          ],
          "areas": "all"
        },
        "toilets": {
          "name": "Toilets",
          "osm_tags": [
            { "amenity": "toilets" }
          ],
          "areas": "all"
        },
        "viewpoint": {
          "name": "View point",
          "osm_tags": [
            { "tourism": "viewpoint" }
          ],
          "areas": "all"
        },
        "artwork": {
          "name": "Artwork",
          "osm_tags": [
            { "tourism": "artwork" }
          ],
          "areas": "all"
        },
        "guest_house": {
          "name": "Guest house",
          "osm_tags": [ { "tourism": "guest_house" } ],
          "areas": "all"
        },
        "hotel": {
          "name": "Hotel",
          "osm_tags": [ { "tourism": "hotel" } ],
          "areas": "all"
        },
        "hostel": {
          "name": "Hostel",
          "osm_tags": [ { "tourism": "hostel" } ],
          "areas": "all"
        }
      }
    }
  }
}
